STARLINK-30783          
1 58130U 23162N   26068.21921962  .00009192  00000+0  34332-3 0  9993
2 58130  43.0004 131.8664 0000579  38.3391 321.7502 15.27561850132272
FLOCK 4G-7              
1 62624U 25009R   26068.79996108  .00011422  00000+0  43168-3 0  9991
2 62624  97.3984 150.8270 0001396 336.9783  23.1393 15.27141471 63725
